{
    "links": {
        "self": "http://www.neowsapp.com/rest/v1/neo/3757292?api_key=iIulBulltgU6a56xZRHN4H3l9WmuAYTsLGpBGhQ2"
    },
    "id": "3757292",
    "neo_reference_id": "3757292",
    "name": "(2016 PM38)",
    "designation": "2016 PM38",
    "nasa_jpl_url": "http://ssd.jpl.nasa.gov/sbdb.cgi?sstr=3757292",
    "absolute_magnitude_h": 26.0,
    "estimated_diameter": {
        "kilometers": {
            "estimated_diameter_min": 0.0167708462,
            "estimated_diameter_max": 0.0375007522
        },
        "meters": {
            "estimated_diameter_min": 16.7708462163,
            "estimated_diameter_max": 37.5007521798
        },
        "miles": {
            "estimated_diameter_min": 0.0104209175,
            "estimated_diameter_max": 0.0233018799
        },
        "feet": {
            "estimated_diameter_min": 55.0224631002,
            "estimated_diameter_max": 123.0339677816
        }
    },
    "is_potentially_hazardous_asteroid": false,
    "close_approach_data": [
        {
            "close_approach_date": "2016-07-24",
            "close_approach_date_full": "2016-Jul-24 23:20",
            "epoch_date_close_approach": 1469402400000,
            "relative_velocity": {
                "kilometers_per_second": "9.3561313944",
                "kilometers_per_hour": "33682.0730197145",
                "miles_per_hour": "20928.7303160554"
            },
            "miss_distance": {
                "astronomical": "0.0478858622",
                "lunar": "18.6276003958",
                "kilometers": "7163622.988233514",
                "miles": "4451268.9168059332"
            },
            "orbiting_body": "Earth"
        }
    ],
    "orbital_data": {
        "orbit_id": "3",
        "orbit_determination_date": "2017-04-06 08:24:36",
        "first_observation_date": "2016-08-08",
        "last_observation_date": "2016-08-12",
        "data_arc_in_days": 4,
        "observations_used": 15,
        "orbit_uncertainty": "9",
        "minimum_orbit_intersection": ".00150474",
        "jupiter_tisserand_invariant": "3.242",
        "epoch_osculation": "2457609.5",
        "eccentricity": ".5832758660681959",
        "semi_major_axis": "2.443747837993968",
        "inclination": "2.10456942357267",
        "ascending_node_longitude": "279.4972659748507",
        "orbital_period": "1395.349537108287",
        "perihelion_distance": "1.018368701335755",
        "perihelion_argument": "358.4718746027757",
        "aphelion_distance": "3.869126974652181",
        "perihelion_time": "2457575.523120054334",
        "mean_anomaly": "8.766030628991071",
        "mean_motion": ".2579998705887426",
        "equinox": "J2000",
        "orbit_class": {
            "orbit_class_type": "AMO",
            "orbit_class_description": "Near-Earth asteroid orbits similar to that of 1221 Amor",
            "orbit_class_range": "1.017 AU < q (perihelion) < 1.3 AU"
        }
    },
    "is_sentry_object": false
}